CALSPHERE 1             
1 00900U 64063C   22216.02673067  .00000288  00000+0  29713-3 0  9994
2 00900  90.1735  41.7776 0025187 236.5059 223.2118 13.73855119877195
CALSPHERE 2             
1 00902U 64063E   22216.02879898  .00000039  00000+0  45017-4 0  9996
2 00902  90.1862  44.8905 0018853  15.9454 108.2167 13.52719440665662
LCS 1                   
1 01361U 65034C   22215.67847890  .00000012  00000+0  42152-3 0  9999
2 01361  32.1420 293.1763 0012846  43.8562 316.2953  9.89301713 69909
TEMPSAT 1               
1 01512U 65065E   22215.82411178  .00000019  00000+0  20703-4 0  9990
2 01512  89.9118 218.2637 0068024 257.2127 221.9690 13.33452740771682
CALSPHERE 4A            
1 01520U 65065H   22215.75389135  .00000078  00000+0  13218-3 0  9995
2 01520  89.9933 130.1387 0070563 128.6540 252.0042 13.35896988773979
OPS 5712 (P/L 160)      
1 02826U 67053A   22215.90339210  .00001046  00000+0  28101-3 0  9993
2 02826  69.9268 177.7675 0008497 282.7751  77.2434 14.50785136859616
OPS 5712 (P/L 153)      
1 02874U 67053H   22216.48975463 -.00000015  00000+0  27543-4 0  9992
2 02874  69.9722 262.2529 0009613 241.3683 118.6457 13.96411797810012
SURCAL 150B             
1 02909U 67053J   22216.34756961  .00001668  00000+0  32831-3 0  9995
2 02909  69.9457 163.8093 0005972 297.9476  62.1061 14.64357486871122
RIGIDSPHERE 2 (LCS 4)   
1 05398U 71067E   22216.48112190  .00000265  00000+0  86309-4 0  9997
2 05398  87.6249   9.7340 0061564 225.4489 134.1672 14.34277367671374
COSMOS 2493 (SKRL-756 1)
1 39490U 13078A   22216.48302459  .00000647  00000+0  65238-4 0  9996
2 39490  82.4185 188.1545 0015551 300.9250  59.0438 14.89530629467174
COSMOS 2494 (SKRL-756 2)
1 39491U 13078B   22216.47833305  .00000687  00000+0  66783-4 0  9995
2 39491  82.4189 181.8359 0019810 273.8962  85.9992 14.90988221467497
